0 IRIDIUM 33 DEB
1 34082U 97051CR  13281.74053344  .00000679  00000-0  28547-3 0  4912
2 34082 086.3986 168.1282 0219534 247.0083 173.3812 14.12479422238379
0 IRIDIUM 33 DEB
1 34082U 97051CR  13283.16993897  .00002518  00000-0  10783-2 0  4923
2 34082 086.3989 167.5511 0219431 242.4089 241.9380 14.12499735238574
0 IRIDIUM 33 DEB
1 34082U 97051CR  13286.14516370  .00003280  00000-0  14071-2 0  4944
2 34082 086.3995 166.3508 0219128 233.0798 250.9602 14.12511752238997
0 IRIDIUM 33 DEB
1 34082U 97051CR  13287.40843377  .00003689  00000-0  15833-2 0  4955
2 34082 086.3993 165.8411 0219134 229.0722 194.7833 14.12516003239177
0 IRIDIUM 33 DEB
1 34082U 97051CR  13288.41275582  .00006595  00000-0  28347-2 0  4968
2 34082 086.3993 165.4357 0219082 225.9228 261.8362 14.12531979239318
0 IRIDIUM 33 DEB
1 34082U 97051CR  13289.67303253  .00007141  00000-0  30696-2 0  4973
2 34082 086.3989 164.9271 0218944 221.9217 190.5581 14.12548620239493
0 IRIDIUM 33 DEB
1 34082U 97051CR  13291.17497375  .00006434  00000-0  27647-2 0  4987
2 34082 086.3986 164.3213 0218828 217.1412 268.2774 14.12564012239709
0 IRIDIUM 33 DEB
1 34082U 97051CR  13292.43600661  .00006504  00000-0  27945-2 0  4991
2 34082 086.3981 163.8128 0218722 213.1309 200.9936 14.12577108239889
0 IRIDIUM 33 DEB
1 34082U 97051CR  13293.71376336  .00006575  00000-0  28252-2 0  5005
2 34082 086.3980 163.2970 0218587 209.0406 218.8401 14.12590892240060
0 IRIDIUM 33 DEB
1 34082U 97051CR  13295.14170332  .00006958  00000-0  29900-2 0  5019
2 34082 086.3979 162.7205 0218445 204.4789 280.4874 14.12605305240266
